NORAD_CAT_ID,OBJECT_NAME,OBJECT_TYPE,EPOCH,MEAN_MOTION,ECCENTRICITY,INCLINATION,RA_OF_ASC_NODE,ARG_OF_PERICENTER,MEAN_ANOMALY,BSTAR,MEAN_MOTION_DOT,MEAN_MOTION_DDOT,TLE_LINE0,TLE_LINE1,TLE_LINE2,SEMIMAJOR_AXIS,PERIOD,APOGEE,PERIGEE,DECAYED
53603.0,STARLINK-4692,PAYLOAD,2023-11-07 10:59:25,15.08833135,0.0001449,53.2148,109.5994,89.2687,270.8471,-0.00012976,-2.352e-05,0.0,0 STARLINK-4692,1 53603U 22104R   23311.45793932 -.00002352  00000-0 -12976-3 0  9990,2 53603  53.2148 109.5994 0001449  89.2687 270.8471 15.08833135 66184,6917.901,95.438,540.769,538.764,0.0
53603.0,STARLINK-4692,PAYLOAD,2023-11-07 14:10:12,15.08827103,0.0001286,53.215,109.0038,95.3353,264.7786,-0.00022694,-3.896e-05,0.0,0 STARLINK-4692,1 53603U 22104R   23311.59042176 -.00003896  00000-0 -22694-3 0  9994,2 53603  53.2150 109.0038 0001286  95.3353 264.7786 15.08827103 66895,6917.92,95.438,540.674,538.895,0.0
53603.0,STARLINK-4692,PAYLOAD,2023-11-07 17:20:59,15.08820322,0.0001381,53.2176,108.4133,90.4973,269.6177,-0.00024885,-4.244e-05,0.0,0 STARLINK-4692,1 53603U 22104R   23311.72290863 -.00004244  00000-0 -24885-3 0  9999,2 53603  53.2176 108.4133 0001381  90.4973 269.6177 15.08820322 66223,6917.941,95.439,540.761,538.85,0.0
53603.0,STARLINK-4692,PAYLOAD,2023-11-08 14:01:00,15.08829624,0.0001431,53.2168,104.5454,102.1919,257.9234,3.7177e-05,3.04e-06,0.0,0 STARLINK-4692,1 53603U 22104R   23312.58403492  .00000304  00000-0  37177-4 0  9998,2 53603  53.2168 104.5454 0001431 102.1919 257.9234 15.08829624 67043,6917.912,95.438,540.767,538.787,0.0
53603.0,STARLINK-4692,PAYLOAD,2023-11-08 17:11:47,15.08828734,0.0001193,53.2169,103.9553,88.6069,271.5059,8.5839e-05,1.078e-05,0.0,0 STARLINK-4692,1 53603U 22104R   23312.71651768  .00001078  00000-0  85839-4 0  9991,2 53603  53.2169 103.9553 0001193  88.6069 271.5059 15.08828734 66379,6917.915,95.438,540.605,538.955,0.0
53603.0,STARLINK-4692,PAYLOAD,2023-11-09 02:44:05,15.08839495,0.0001348,53.218,102.17,95.9271,264.1875,0.00017087,2.432e-05,0.0,0 STARLINK-4692,1 53603U 22104R   23313.11395373  .00002432  00000-0  17087-3 0  9997,2 53603  53.2180 102.1700 0001348  95.9271 264.1875 15.08839495 66432,6917.882,95.438,540.679,538.814,0.0
53603.0,STARLINK-4692,PAYLOAD,2023-11-09 13:51:47,15.088573,0.0001081,53.2167,100.087,91.1001,269.0115,0.00081495,0.00012712,0.0,0 STARLINK-4692,1 53603U 22104R   23313.57763380  .00012712  00000-0  81495-3 0  9990,2 53603  53.2167 100.0870 0001081  91.1001 269.0115 15.08857300 67195,6917.828,95.436,540.44,538.945,0.0
53603.0,STARLINK-4692,PAYLOAD,2023-11-09 17:02:33,15.08875642,0.0001101,53.2166,99.4914,85.9766,274.1352,0.0011568,0.00018188,0.0,0 STARLINK-4692,1 53603U 22104R   23313.71011109  .00018188  00000-0  11568-2 0  9997,2 53603  53.2166  99.4914 0001101  85.9766 274.1352 15.08875642 66521,6917.771,95.435,540.398,538.875,0.0
53603.0,STARLINK-4692,PAYLOAD,2023-11-10 02:34:52,15.08873549,0.0001063,53.2159,97.7098,97.6559,262.4554,0.00072944,0.00011351,0.0,0 STARLINK-4692,1 53603U 22104R   23314.10754665  .00011351  00000-0  72944-3 0  9993,2 53603  53.2159  97.7098 0001063  97.6559 262.4554 15.08873549 66588,6917.778,95.435,540.378,538.907,0.0
53603.0,STARLINK-4692,PAYLOAD,2023-11-10 10:31:48,15.08851448,0.0002246,53.2166,96.2204,93.6332,266.4917,0.00067647,0.00010498,0.0,0 STARLINK-4692,1 53603U 22104R   23314.43875036  .00010498  00000-0  67647-3 0  9990,2 53603  53.2166  96.2204 0002246  93.6332 266.4917 15.08851448 66635,6917.845,95.437,541.264,538.157,0.0
53603.0,STARLINK-4692,PAYLOAD,2023-11-10 13:42:34,15.08852984,0.0001921,53.2164,95.6241,89.1214,270.9998,0.00015732,2.217e-05,0.0,0 STARLINK-4692,1 53603U 22104R   23314.57122842  .00002217  00000-0  15732-3 0  9993,2 53603  53.2164  95.6241 0001921  89.1214 270.9998 15.08852984 67349,6917.841,95.437,541.035,538.377,0.0
53603.0,STARLINK-4692,PAYLOAD,2023-11-10 16:53:20,15.08849547,0.0001776,53.2174,95.0312,91.9859,268.1337,-4.2157e-06,-3.55e-06,0.0,0 STARLINK-4692,1 53603U 22104R   23314.70370877 -.00000355  00000-0 -42157-5 0  9997,2 53603  53.2174  95.0312 0001776  91.9859 268.1337 15.08849547 67366,6917.851,95.437,540.945,538.488,0.0
53603.0,STARLINK-4692,PAYLOAD,2023-11-11 13:33:21,15.08844164,0.0001202,53.2157,91.1642,92.1242,267.9888,0.0002648,3.929e-05,0.0,0 STARLINK-4692,1 53603U 22104R   23315.56482836  .00003929  00000-0  26480-3 0  9998,2 53603  53.2157  91.1642 0001202  92.1242 267.9888 15.08844164 67495,6917.868,95.437,540.564,538.901,0.0
53603.0,STARLINK-4692,PAYLOAD,2023-11-11 18:19:30,15.08849788,0.0001282,53.2157,90.2714,89.139,270.9749,0.0004855,7.449e-05,0.0,0 STARLINK-4692,1 53603U 22104R   23315.76354740  .00007449  00000-0  48550-3 0  9995,2 53603  53.2157  90.2714 0001282  89.1390 270.9749 15.08849788 66837,6917.85,95.437,540.602,538.829,0.0
53603.0,STARLINK-4692,PAYLOAD,2023-11-12 02:16:26,15.08840835,0.0001317,53.2158,88.7848,79.1525,280.9615,0.00011446,1.534e-05,0.0,0 STARLINK-4692,1 53603U 22104R   23316.09474980  .00001534  00000-0  11446-3 0  9994,2 53603  53.2158  88.7848 0001317  79.1525 280.9615 15.08840835 66888,6917.878,95.438,540.654,538.832,0.0
53603.0,STARLINK-4692,PAYLOAD,2023-11-12 13:24:08,15.08837321,0.0001202,53.2163,86.7019,85.275,274.8379,9.3903e-05,1.207e-05,0.0,0 STARLINK-4692,1 53603U 22104R   23316.55843182  .00001207  00000-0  93903-4 0  9995,2 53603  53.2163  86.7019 0001202  85.2750 274.8379 15.08837321 67643,6917.889,95.438,540.585,538.922,0.0
53603.0,STARLINK-4692,PAYLOAD,2023-11-12 16:34:54,15.08844303,0.0001322,53.2161,86.1073,83.2554,276.8589,0.00021047,3.064e-05,0.0,0 STARLINK-4692,1 53603U 22104R   23316.69091084  .00003064  00000-0  21047-3 0  9998,2 53603  53.2161  86.1073 0001322  83.2554 276.8589 15.08844303 67663,6917.867,95.437,540.647,538.818,0.0
53603.0,STARLINK-4692,PAYLOAD,2023-11-13 08:28:45,15.08848049,0.0001224,53.2161,83.134,86.5385,273.5748,0.00024698,3.646e-05,0.0,0 STARLINK-4692,1 53603U 22104R   23317.35330961  .00003646  00000-0  24698-3 0  9993,2 53603  53.2161  83.1340 0001224  86.5385 273.5748 15.08848049 67073,6917.856,95.437,540.568,538.874,0.0
53603.0,STARLINK-4692,PAYLOAD,2023-11-13 14:50:18,15.0885476,0.0001261,53.2157,81.9453,84.2454,275.8682,0.00035588,5.383e-05,0.0,0 STARLINK-4692,1 53603U 22104R   23317.61826642  .00005383  00000-0  35588-3 0  9998,2 53603  53.2157  81.9453 0001261  84.2454 275.8682 15.08854760 67802,6917.835,95.437,540.573,538.828,0.0
53603.0,STARLINK-4692,PAYLOAD,2023-11-14 11:30:19,15.08840091,0.0001508,53.2165,78.078,101.5628,258.5534,8.7713e-05,1.108e-05,0.0,0 STARLINK-4692,1 53603U 22104R   23318.47939094  .00001108  00000-0  87713-4 0  9998,2 53603  53.2165  78.0780 0001508 101.5628 258.5534 15.08840091 67245,6917.88,95.438,540.788,538.702,0.0
53603.0,STARLINK-4692,PAYLOAD,2023-11-14 14:41:05,15.08839861,0.0001438,53.2162,77.4846,90.8875,269.2282,8.6065e-05,1.082e-05,0.0,0 STARLINK-4692,1 53603U 22104R   23318.61187157  .00001082  00000-0  86065-4 0  9999,2 53603  53.2162  77.4846 0001438  90.8875 269.2282 15.08839861 67954,6917.881,95.438,540.741,538.751,0.0
53603.0,STARLINK-4692,PAYLOAD,2023-11-15 12:56:29,15.08843696,0.0001429,53.2183,73.323,94.282,265.8335,0.00015287,2.146e-05,0.0,0 STARLINK-4692,1 53603U 22104R   23319.53923137  .00002146  00000-0  15287-3 0  9996,2 53603  53.2183  73.3230 0001429  94.2820 265.8335 15.08843696 68095,6917.869,95.437,540.723,538.746,0.0
53603.0,STARLINK-4692,PAYLOAD,2023-11-15 17:42:38,15.08847051,0.0001415,53.2173,72.4288,93.509,266.6064,0.00021345,3.111e-05,0.0,0 STARLINK-4692,1 53603U 22104R   23319.73794982  .00003111  00000-0  21345-3 0  9997,2 53603  53.2173  72.4288 0001415  93.5090 266.6064 15.08847051 67437,6917.859,95.437,540.703,538.745,0.0
53603.0,STARLINK-4692,PAYLOAD,2023-11-16 08:01:06,15.08840655,0.0001852,53.2179,69.7528,99.3587,260.7614,0.00014278,1.985e-05,0.0,0 STARLINK-4692,1 53603U 22104R   23320.33410700  .00001985  00000-0  14278-3 0  9992,2 53603  53.2179  69.7528 0001852  99.3587 260.7614 15.08840655 68215,6917.878,95.438,541.025,538.462,0.0
53603.0,STARLINK-4692,PAYLOAD,2023-11-17 11:02:41,15.08831082,0.0001776,53.2172,64.6975,115.1824,244.9353,0.00037536,5.689e-05,0.0,0 STARLINK-4692,1 53603U 22104R   23321.46019739  .00005689  00000-0  37536-3 0  9991,2 53603  53.2172  64.6975 0001776 115.1824 244.9353 15.08831082 67693,6917.908,95.438,541.001,538.544,0.0
53603.0,STARLINK-4692,PAYLOAD,2023-11-17 14:13:27,15.08836976,0.0001432,53.2183,64.1045,104.3842,255.7309,0.0001766,2.524e-05,0.0,0 STARLINK-4692,1 53603U 22104R   23321.59267564  .00002524  00000-0  17660-3 0  9997,2 53603  53.2183  64.1045 0001432 104.3842 255.7309 15.08836976 68405,6917.89,95.438,540.745,538.764,0.0
53603.0,STARLINK-4692,PAYLOAD,2023-11-17 15:48:50,15.08841369,0.0001411,53.2182,63.8071,101.8453,258.2698,4.5462e-05,4.36e-06,0.0,0 STARLINK-4692,1 53603U 22104R   23321.65891313  .00000436  00000-0  45462-4 0  9991,2 53603  53.2182  63.8071 0001411 101.8453 258.2698 15.08841369 68418,6917.876,95.437,540.717,538.765,0.0
53603.0,STARLINK-4692,PAYLOAD,2023-11-18 12:28:51,15.08835786,0.0001525,53.2185,59.9423,90.6331,269.4836,6.1257e-05,6.87e-06,0.0,0 STARLINK-4692,1 53603U 22104R   23322.52003859  .00000687  00000-0  61257-4 0  9996,2 53603  53.2185  59.9423 0001525  90.6331 269.4836 15.08835786 67855,6917.893,95.438,540.813,538.703,0.0
53603.0,STARLINK-4692,PAYLOAD,2023-11-18 15:39:37,15.08838977,0.0001542,53.2183,59.3472,86.6947,273.4222,0.00010017,1.307e-05,0.0,0 STARLINK-4692,1 53603U 22104R   23322.65251749  .00001307  00000-0  10017-3 0  9990,2 53603  53.2183  59.3472 0001542  86.6947 273.4222 15.08838977 68566,6917.884,95.438,540.815,538.682,0.0
53603.0,STARLINK-4692,PAYLOAD,2023-11-19 13:55:01,15.08844896,0.0001503,53.2191,55.1844,87.3797,272.7367,0.0001489,2.083e-05,0.0,0 STARLINK-4692,1 53603U 22104R   23323.57987643  .00002083  00000-0  14890-3 0  9996,2 53603  53.2191  55.1844 0001503  87.3797 272.7367 15.08844896 68705,6917.865,95.437,540.77,538.691,0.0
